{
    "links": {
        "self": "http://www.neowsapp.com/rest/v1/neo/3769916?api_key=iIulBulltgU6a56xZRHN4H3l9WmuAYTsLGpBGhQ2"
    },
    "id": "3769916",
    "neo_reference_id": "3769916",
    "name": "(2017 DT36)",
    "designation": "2017 DT36",
    "nasa_jpl_url": "http://ssd.jpl.nasa.gov/sbdb.cgi?sstr=3769916",
    "absolute_magnitude_h": 23.7,
    "estimated_diameter": {
        "kilometers": {
            "estimated_diameter_min": 0.0483676488,
            "estimated_diameter_max": 0.1081533507
        },
        "meters": {
            "estimated_diameter_min": 48.3676488219,
            "estimated_diameter_max": 108.1533506775
        },
        "miles": {
            "estimated_diameter_min": 0.0300542543,
            "estimated_diameter_max": 0.0672033557
        },
        "feet": {
            "estimated_diameter_min": 158.6865169607,
            "estimated_diameter_max": 354.8338390368
        }
    },
    "is_potentially_hazardous_asteroid": false,
    "close_approach_data": [
        {
            "close_approach_date": "2017-02-17",
            "close_approach_date_full": "2017-Feb-17 04:58",
            "epoch_date_close_approach": 1487307480000,
            "relative_velocity": {
                "kilometers_per_second": "14.8079967912",
                "kilometers_per_hour": "53308.7884482462",
                "miles_per_hour": "33124.0080221894"
            },
            "miss_distance": {
                "astronomical": "0.0962854711",
                "lunar": "37.4550482579",
                "kilometers": "14404101.388506557",
                "miles": "8950293.5721902066"
            },
            "orbiting_body": "Earth"
        }
    ],
    "orbital_data": {
        "orbit_id": "3",
        "orbit_determination_date": "2017-04-06 08:19:57",
        "first_observation_date": "2017-02-23",
        "last_observation_date": "2017-03-03",
        "data_arc_in_days": 8,
        "observations_used": 26,
        "orbit_uncertainty": "9",
        "minimum_orbit_intersection": ".0859245",
        "jupiter_tisserand_invariant": "4.481",
        "epoch_osculation": "2457809.5",
        "eccentricity": ".264752963464041",
        "semi_major_axis": "1.456259208812001",
        "inclination": "27.19038703871687",
        "ascending_node_longitude": "150.1847322773154",
        "orbital_period": "641.8838574850115",
        "perihelion_distance": "1.070710267707224",
        "perihelion_argument": "349.2602870396775",
        "aphelion_distance": "1.841808149916778",
        "perihelion_time": "2457790.294534845612",
        "mean_anomaly": "10.77136833237955",
        "mean_motion": ".5608491252771632",
        "equinox": "J2000",
        "orbit_class": {
            "orbit_class_type": "AMO",
            "orbit_class_description": "Near-Earth asteroid orbits similar to that of 1221 Amor",
            "orbit_class_range": "1.017 AU < q (perihelion) < 1.3 AU"
        }
    },
    "is_sentry_object": false
}